{"type": "FeatureCollection", "features": [ {"type": "Feature", "properties": {"norad_id": 30207, "name": "FENGYUN 1C DEB", "group": "fengyun-1c-debris", "lat": -20.24266241537842, "lon": -95.23816736810342, "alt_km": 796.325497953736, "timestamp": "2025-12-02T06:27:53.288246+00:00", "meta": {"OBJECT_NAME": "FENGYUN 1C DEB", "OBJECT_ID": "1999-025VQ", "EPOCH": "2025-12-01T19:41:31.809120", "MEAN_MOTION": 13.79121782, "ECCENTRICITY": 0.0260192, "INCLINATION": 98.5739, "RA_OF_ASC_NODE": 87.5443, "ARG_OF_PERICENTER": 177.8485, "MEAN_ANOMALY": 314.0389, "EPHEMERIS_TYPE": 0, "CLASSIFICATION_TYPE": "U", "NORAD_CAT_ID": 30207, "ELEMENT_SET_NO": 999, "REV_AT_EPOCH": 94912, "BSTAR": 0.00033722, "MEAN_MOTION_DOT": 4.07e-06, "MEAN_MOTION_DDOT": 0}, "tle": {"line1": "1 30207U 99025VQ  25335.82050705  .00000407  00000+0  33722-3 0  9992", "line2": "2 30207  98.5739  87.5443 0260192 177.8485 314.0389 13.79121782949120"}}, "geometry": {"type": "Point", "coordinates": [-95.23816736810342, -20.24266241537842]}}, {"type": "Feature", "properties": {"norad_id": 30208, "name": "FENGYUN 1C DEB", "group": "fengyun-1c-debris", "lat": 3.94437472238711, "lon": 158.1203672420695, "alt_km": 829.8851950693688, "timestamp": "2025-12-02T06:27:53.288257+00:00", "meta": {"OBJECT_NAME": "FENGYUN 1C DEB", "OBJECT_ID": "1999-025VR", "EPOCH": "2025-12-01T13:21:29.253312", "MEAN_MOTION": 14.23484269, "ECCENTRICITY": 0.00331811, "INCLINATION": 98.5615, "RA_OF_ASC_NODE": 336.8317, "ARG_OF_PERICENTER": 303.7489, "MEAN_ANOMALY": 181.8633, "EPHEMERIS_TYPE": 0, "CLASSIFICATION_TYPE": "U", "NORAD_CAT_ID": 30208, "ELEMENT_SET_NO": 999, "REV_AT_EPOCH": 97678, "BSTAR": 0.00054539849, "MEAN_MOTION_DOT": 1.204e-05, "MEAN_MOTION_DDOT": 0}, "tle": {"line1": "1 30208U 99025VR  25335.55658858  .00001204  00000+0  54540-3 0  9993", "line2": "2 30208  98.5615 336.8317 0033181 303.7489 181.8633 14.23484269976780"}}, "geometry": {"type": "Point", "coordinates": [158.1203672420695, 3.94437472238711]}}, {"type": "Feature", "properties": {"norad_id": 30209, "name": "FENGYUN 1C DEB", "group": "fengyun-1c-debris", "lat": -17.83417366654636, "lon": 150.55167638293085, "alt_km": 845.5051029309334, "timestamp": "2025-12-02T06:27:53.288277+00:00", "meta": {"OBJECT_NAME": "FENGYUN 1C DEB", "OBJECT_ID": "1999-025VS", "EPOCH": "2025-12-01T13:05:24.122976", "MEAN_MOTION": 14.12873087, "ECCENTRICITY": 0.00385764, "INCLINATION": 98.7137, "RA_OF_ASC_NODE": 332.6754, "ARG_OF_PERICENTER": 271.4667, "MEAN_ANOMALY": 206.6945, "EPHEMERIS_TYPE": 0, "CLASSIFICATION_TYPE": "U", "NORAD_CAT_ID": 30209, "ELEMENT_SET_NO": 999, "REV_AT_EPOCH": 97048, "BSTAR": 0.00049494556, "MEAN_MOTION_DOT": 8.84e-06, "MEAN_MOTION_DDOT": 0}, "tle": {"line1": "1 30209U 99025VS  25335.54541809  .00000884  00000+0  49495-3 0  9996", "line2": "2 30209  98.7137 332.6754 0038576 271.4667 206.6945 14.12873087970484"}}, "geometry": {"type": "Point", "coordinates": [150.55167638293085, -17.83417366654636]}}, {"type": "Feature", "properties": {"norad_id": 30210, "name": "FENGYUN 1C DEB", "group": "fengyun-1c-debris", "lat": 18.730483905790255, "lon": 22.67833353606764, "alt_km": 899.639633519384, "timestamp": "2025-12-02T06:27:53.288289+00:00", "meta": {"OBJECT_NAME": "FENGYUN 1C DEB", "OBJECT_ID": "1999-025VT", "EPOCH": "2025-12-01T15:38:56.489280", "MEAN_MOTION": 14.08229895, "ECCENTRICITY": 0.00568376, "INCLINATION": 99.1919, "RA_OF_ASC_NODE": 25.1971, "ARG_OF_PERICENTER": 166.7521, "MEAN_ANOMALY": 324.8181, "EPHEMERIS_TYPE": 0, "CLASSIFICATION_TYPE": "U", "NORAD_CAT_ID": 30210, "ELEMENT_SET_NO": 999, "REV_AT_EPOCH": 96601, "BSTAR": 0.00068194165, "MEAN_MOTION_DOT": 1.136e-05, "MEAN_MOTION_DDOT": 0}, "tle": {"line1": "1 30210U 99025VT  25335.65204270  .00001136  00000+0  68194-3 0  9996", "line2": "2 30210  99.1919  25.1971 0056837 166.7521 324.8181 14.08229895966015"}}, "geometry": {"type": "Point", "coordinates": [22.67833353606764, 18.730483905790255]}}, {"type": "Feature", "properties": {"norad_id": 30212, "name": "FENGYUN 1C DEB", "group": "fengyun-1c-debris", "lat": -28.300819304647874, "lon": -153.50090831148376, "alt_km": 879.9607794789463, "timestamp": "2025-12-02T06:27:53.288299+00:00", "meta": {"OBJECT_NAME": "FENGYUN 1C DEB", "OBJECT_ID": "1999-025VV", "EPOCH": "2025-12-01T13:24:46.943424", "MEAN_MOTION": 13.97036343, "ECCENTRICITY": 0.00968387, "INCLINATION": 99.4581, "RA_OF_ASC_NODE": 200.6188, "ARG_OF_PERICENTER": 267.8272, "MEAN_ANOMALY": 91.1798, "EPHEMERIS_TYPE": 0, "CLASSIFICATION_TYPE": "U", "NORAD_CAT_ID": 30212, "ELEMENT_SET_NO": 999, "REV_AT_EPOCH": 96069, "BSTAR": 0.00061240441, "MEAN_MOTION_DOT": 8.41e-06, "MEAN_MOTION_DDOT": 0}, "tle": {"line1": "1 30212U 99025VV  25335.55887666  .00000841  00000+0  61240-3 0  9990", "line2": "2 30212  99.4581 200.6188 0096838 267.8272  91.1798 13.97036343960693"}}, "geometry": {"type": "Point", "coordinates": [-153.50090831148376, -28.300819304647874]}}, {"type": "Feature", "properties": {"norad_id": 30213, "name": "FENGYUN 1C DEB", "group": "fengyun-1c-debris", "lat": -35.041781574295264, "lon": -133.93312486910472, "alt_km": 832.7780663500071, "timestamp": "2025-12-02T06:27:53.288309+00:00", "meta": {"OBJECT_NAME": "FENGYUN 1C DEB", "OBJECT_ID": "1999-025VW", "EPOCH": "2025-12-01T19:49:03.167904", "MEAN_MOTION": 14.11474667, "ECCENTRICITY": 0.0070754, "INCLINATION": 99.1241, "RA_OF_ASC_NODE": 52.0872, "ARG_OF_PERICENTER": 274.2411, "MEAN_ANOMALY": 208.8916, "EPHEMERIS_TYPE": 0, "CLASSIFICATION_TYPE": "U", "NORAD_CAT_ID": 30213, "ELEMENT_SET_NO": 999, "REV_AT_EPOCH": 96361, "BSTAR": 0.00162, "MEAN_MOTION_DOT": 2.96e-05, "MEAN_MOTION_DDOT": 0}, "tle": {"line1": "1 30213U 99025VW  25335.82573111  .00002960  00000+0  16200-2 0  9997", "line2": "2 30213  99.1241  52.0872 0070754 274.2411 208.8916 14.11474667963615"}}, "geometry": {"type": "Point", "coordinates": [-133.93312486910472, -35.041781574295264]}}, {"type": "Feature", "properties": {"norad_id": 30214, "name": "FENGYUN 1C DEB", "group": "fengyun-1c-debris", "lat": 23.869884531329173, "lon": 45.48482746393423, "alt_km": 778.957265369555, "timestamp": "2025-12-02T06:27:53.288319+00:00", "meta": {"OBJECT_NAME": "FENGYUN 1C DEB", "OBJECT_ID": "1999-025VX", "EPOCH": "2025-11-30T16:27:25.260192", "MEAN_MOTION": 14.30757233, "ECCENTRICITY": 0.00218328, "INCLINATION": 98.7249, "RA_OF_ASC_NODE": 47.7925, "ARG_OF_PERICENTER": 81.2034, "MEAN_ANOMALY": 70.8763, "EPHEMERIS_TYPE": 0, "CLASSIFICATION_TYPE": "U", "NORAD_CAT_ID": 30214, "ELEMENT_SET_NO": 999, "REV_AT_EPOCH": 97394, "BSTAR": 0.0017901745, "MEAN_MOTION_DOT": 4.657e-05, "MEAN_MOTION_DDOT": 0}, "tle": {"line1": "1 30214U 99025VX  25334.68570903  .00004657  00000+0  17902-2 0  9992", "line2": "2 30214  98.7249  47.7925 0021832  81.2034  70.8763 14.30757233973947"}}, "geometry": {"type": "Point", "coordinates": [45.48482746393423, 23.869884531329173]}}, {"type": "Feature", "properties": {"norad_id": 30217, "name": "FENGYUN 1C DEB", "group": "fengyun-1c-debris", "lat": 40.56081806149419, "lon": -46.84112067649453, "alt_km": 802.8692486665177, "timestamp": "2025-12-02T06:27:53.288329+00:00", "meta": {"OBJECT_NAME": "FENGYUN 1C DEB", "OBJECT_ID": "1999-025WA", "EPOCH": "2025-12-01T16:47:15.084960", "MEAN_MOTION": 14.2481249, "ECCENTRICITY": 0.0140404, "INCLINATION": 98.4305, "RA_OF_ASC_NODE": 319.9041, "ARG_OF_PERICENTER": 131.9372, "MEAN_ANOMALY": 229.3877, "EPHEMERIS_TYPE": 0, "CLASSIFICATION_TYPE": "U", "NORAD_CAT_ID": 30217, "ELEMENT_SET_NO": 999, "REV_AT_EPOCH": 97916, "BSTAR": 0.00023041, "MEAN_MOTION_DOT": 5.54e-06, "MEAN_MOTION_DDOT": 0}, "tle": {"line1": "1 30217U 99025WA  25335.69948015  .00000554  00000+0  23041-3 0  9994", "line2": "2 30217  98.4305 319.9041 0140404 131.9372 229.3877 14.24812490979165"}}, "geometry": {"type": "Point", "coordinates": [-46.84112067649453, 40.56081806149419]}}, {"type": "Feature", "properties": {"norad_id": 30218, "name": "FENGYUN 1C DEB", "group": "fengyun-1c-debris", "lat": 57.04995881439388, "lon": -100.54081020730217, "alt_km": 838.5508745633888, "timestamp": "2025-12-02T06:27:53.288339+00:00", "meta": {"OBJECT_NAME": "FENGYUN 1C DEB", "OBJECT_ID": "1999-025WB", "EPOCH": "2025-12-01T18:43:35.471424", "MEAN_MOTION": 14.28578505, "ECCENTRICITY": 0.0069631, "INCLINATION": 98.9875, "RA_OF_ASC_NODE": 64.8229, "ARG_OF_PERICENTER": 285.63, "MEAN_ANOMALY": 202.4412, "EPHEMERIS_TYPE": 0, "CLASSIFICATION_TYPE": "U", "NORAD_CAT_ID": 30218, "ELEMENT_SET_NO": 999, "REV_AT_EPOCH": 96952, "BSTAR": 0.0024516, "MEAN_MOTION_DOT": 6.271e-05, "MEAN_MOTION_DDOT": 0}, "tle": {"line1": "1 30218U 99025WB  25335.78027166  .00006271  00000+0  24516-2 0  9999", "line2": "2 30218  98.9875  64.8229 0069631 285.6300 202.4412 14.28578505969523"}}, "geometry": {"type": "Point", "coordinates": [-100.54081020730217, 57.04995881439388]}}, {"type": "Feature", "properties": {"norad_id": 30221, "name": "FENGYUN 1C DEB", "group": "fengyun-1c-debris", "lat": 67.31881612879467, "lon": -94.47596570995104, "alt_km": 650.9390277368111, "timestamp": "2025-12-02T06:27:53.288349+00:00", "meta": {"OBJECT_NAME": "FENGYUN 1C DEB", "OBJECT_ID": "1999-025WE", "EPOCH": "2025-12-01T20:00:00.578592", "MEAN_MOTION": 14.45779817, "ECCENTRICITY": 0.0145853, "INCLINATION": 98.9571, "RA_OF_ASC_NODE": 62.8917, "ARG_OF_PERICENTER": 73.766, "MEAN_ANOMALY": 287.9521, "EPHEMERIS_TYPE": 0, "CLASSIFICATION_TYPE": "U", "NORAD_CAT_ID": 30221, "ELEMENT_SET_NO": 999, "REV_AT_EPOCH": 99243, "BSTAR": 0.00024965, "MEAN_MOTION_DOT": 9.55e-06, "MEAN_MOTION_DDOT": 0}, "tle": {"line1": "1 30221U 99025WE  25335.83334003  .00000955  00000+0  24965-3 0  9992", "line2": "2 30221  98.9571  62.8917 0145853  73.7660 287.9521 14.45779817992431"}}, "geometry": {"type": "Point", "coordinates": [-94.47596570995104, 67.31881612879467]}}]}